STARLINK-36976          
1 68066U 26041AC  26066.58334491 -.01388971  61123-3 -24793-2 0  9998
2 68066  53.1590  72.9686 0000524  65.7711 210.9430 16.01165534  2033
STARLINK-36929          
1 68067U 26041AD  26066.58334491 -.01379513  60202-3 -24974-2 0  9999
2 68067  53.1590  72.9747 0000482  51.6670 222.1678 16.00921201  2032
STARLINK-36990          
1 68068U 26041AE  26066.58334491 -.01370523  59735-3 -24270-2 0  9990
2 68068  53.1590  72.9652 0000532  52.9433 225.4893 16.01299251  2034
