[{"OBJECT_NAME":"STARLINK-36976","OBJECT_ID":"2026-041AC","EPOCH":"2026-03-07T14:00:01.000224","MEAN_MOTION":16.01165534,"ECCENTRICITY":5.246e-5,"INCLINATION":53.159,"RA_OF_ASC_NODE":72.9686,"ARG_OF_PERICENTER":65.7711,"MEAN_ANOMALY":210.943,"EPHEMERIS_TYPE":0,"CLASSIFICATION_TYPE":"U","NORAD_CAT_ID":68066,"ELEMENT_SET_NO":999,"REV_AT_EPOCH":203,"BSTAR":-0.0024793321,"MEAN_MOTION_DOT":-0.01388971,"MEAN_MOTION_DDOT":0.00061122697},{"OBJECT_NAME":"STARLINK-36929","OBJECT_ID":"2026-041AD","EPOCH":"2026-03-07T14:00:01.000224","MEAN_MOTION":16.00921201,"ECCENTRICITY":4.824e-5,"INCLINATION":53.159,"RA_OF_ASC_NODE":72.9747,"ARG_OF_PERICENTER":51.667,"MEAN_ANOMALY":222.1678,"EPHEMERIS_TYPE":0,"CLASSIFICATION_TYPE":"U","NORAD_CAT_ID":68067,"ELEMENT_SET_NO":999,"REV_AT_EPOCH":203,"BSTAR":-0.0024973537,"MEAN_MOTION_DOT":-0.01379513,"MEAN_MOTION_DDOT":0.00060202029},{"OBJECT_NAME":"STARLINK-36990","OBJECT_ID":"2026-041AE","EPOCH":"2026-03-07T14:00:01.000224","MEAN_MOTION":16.01299251,"ECCENTRICITY":5.326e-5,"INCLINATION":53.159,"RA_OF_ASC_NODE":72.9652,"ARG_OF_PERICENTER":52.9433,"MEAN_ANOMALY":225.4893,"EPHEMERIS_TYPE":0,"CLASSIFICATION_TYPE":"U","NORAD_CAT_ID":68068,"ELEMENT_SET_NO":999,"REV_AT_EPOCH":203,"BSTAR":-0.0024270355,"MEAN_MOTION_DOT":-0.01370523,"MEAN_MOTION_DDOT":0.0005973502}]
